      2.10          N: GNSS NAV DATA                        RINEX VERSION / TYPE
fic2rin                                 11/21/2020 00:18:37 PGM / RUN BY / DATE
                                                            END OF HEADER
 8 20 11 20 14  0  0.0-5.576154217124e-05-1.364242052659e-12 0.000000000000e+00
    6.500000000000e+01 6.737500000000e+01 4.260534611225e-09 8.410690749544e-01
    3.527849912643e-06 5.754831363447e-03 4.546716809273e-06 5.153755706787e+03
    4.824000000000e+05 1.303851604462e-07-1.129997178907e+00 1.080334186554e-07
    9.685749169188e-01 2.947187500000e+02-6.690375686716e-02-8.129267188037e-09
    1.042900583853e-10 1.000000000000e+00 2.132000000000e+03 0.000000000000e+00
    2.400000000000e+00 0.000000000000e+00 5.122274160385e-09 6.500000000000e+01
    4.752000000000e+05 4.000000000000e+00
 4 20 11 20 14  0  0.0-1.571006141603e-04-3.524291969370e-12 0.000000000000e+00
    2.400000000000e+01-4.906250000000e+00 4.698767151084e-09 2.346233662392e-01
   -3.986060619354e-07 9.265214903280e-04 8.374452590942e-06 5.153607625961e+03
    4.824000000000e+05-4.656612873077e-08 2.060826129315e+00 4.097819328308e-08
    9.598672861881e-01 2.148750000000e+02-3.046780357946e+00-7.996047353182e-09
    1.846505485794e-10 1.000000000000e+00 2.132000000000e+03 0.000000000000e+00
    2.400000000000e+00 0.000000000000e+00-4.190951585770e-09 5.360000000000e+02
    4.752000000000e+05 4.000000000000e+00
22 20 11 20 14  0  0.0-7.272562943399e-04 5.456968210638e-12 0.000000000000e+00
    3.900000000000e+01-8.928125000000e+01 5.203431029503e-09-2.743980007496e-01
   -4.595145583153e-06 6.727027823217e-03 8.566305041313e-06 5.153680906296e+03
    4.824000000000e+05-5.401670932770e-08 8.879552907192e-01-6.332993507385e-08
    9.325802447505e-01 2.014375000000e+02-1.073588620167e+00-8.460352407637e-09
    1.667926618696e-10 1.000000000000e+00 2.132000000000e+03 0.000000000000e+00
    2.400000000000e+00 0.000000000000e+00-1.816079020500e-08 3.900000000000e+01
    4.752000000000e+05 4.000000000000e+00
32 20 11 20 14  0  0.0 2.041924744844e-06 3.183231456205e-12 0.000000000000e+00
    3.800000000000e+01-6.875000000000e-01 4.796271212519e-09 1.461853069054e+00
   -1.117587089539e-08 4.255817737430e-03 8.512288331985e-06 5.153603036880e+03
    4.824000000000e+05-8.754432201385e-08 2.020690047246e+00 7.636845111847e-08
    9.566849068636e-01 2.147187500000e+02-2.465870656725e+00-8.099623096099e-09
    1.839362331110e-10 1.000000000000e+00 2.132000000000e+03 0.000000000000e+00
    2.400000000000e+00 0.000000000000e+00 4.656612873077e-10 3.800000000000e+01
    4.752000000000e+05 4.000000000000e+00
26 20 11 20 14  0  0.0 1.944135874510e-06 6.025402399246e-12 0.000000000000e+00
    3.500000000000e+01 5.928125000000e+01 4.671623163285e-09 2.641630754981e+00
    3.077089786530e-06 5.308303749189e-03 8.357688784599e-06 5.153716215134e+03
    4.824000000000e+05-4.842877388000e-08-2.200052853375e+00 1.117587089539e-08
    9.444268573409e-01 2.106875000000e+02 2.068756401951e-01-8.059264272135e-09
   -2.550106222160e-10 1.000000000000e+00 2.132000000000e+03 0.000000000000e+00
    2.400000000000e+00 0.000000000000e+00 6.984919309616e-09 3.500000000000e+01
    4.752000000000e+05 4.000000000000e+00
25 20 11 20 14  0  0.0 2.545723691583e-05 6.707523425575e-12 0.000000000000e+00
    4.900000000000e+01 5.103125000000e+01 4.179459805563e-09-3.088366082112e+00
    2.652406692505e-06 9.336936287582e-03 8.890405297279e-06 5.153708419800e+03
    4.824000000000e+05 1.490116119385e-08-2.161457260617e+00-3.539025783539e-08
    9.634032220912e-01 2.081562500000e+02 9.264490965636e-01-7.703892326610e-09
   -2.071514858337e-10 1.000000000000e+00 2.132000000000e+03 0.000000000000e+00
    2.400000000000e+00 0.000000000000e+00 5.587935447693e-09 4.900000000000e+01
    4.752000000000e+05 4.000000000000e+00
21 20 11 20 14  0  0.0 7.008668035269e-05 3.637978807092e-12 0.000000000000e+00
    2.600000000000e+01-5.878125000000e+01 4.884846330600e-09 1.027281374713e+00
   -3.587454557419e-06 2.391471154988e-02 3.591179847717e-06 5.153758172989e+03
    4.824000000000e+05-5.029141902924e-08-1.366617473675e-01-6.221234798431e-07
    9.554882384118e-01 3.119687500000e+02-1.242585826619e+00-8.638931274735e-09
    4.928776731906e-11 1.000000000000e+00 2.132000000000e+03 0.000000000000e+00
    2.400000000000e+00 0.000000000000e+00-1.024454832077e-08 2.600000000000e+01
    4.752000000000e+05 4.000000000000e+00
20 20 11 20 14  0  0.0 5.259416066110e-04-1.136868377216e-13 0.000000000000e+00
    1.700000000000e+01-7.862500000000e+01 5.000565436479e-09-1.989886234132e+00
   -4.090368747711e-06 5.850004148670e-03 8.128583431244e-06 5.153669366837e+03
    4.824000000000e+05-1.322478055954e-07 8.410861925588e-01-7.264316082001e-08
    9.359243745383e-01 2.123750000000e+02 2.765427059480e+00-8.250700817664e-09
    1.610781381224e-10 1.000000000000e+00 2.132000000000e+03 0.000000000000e+00
    2.400000000000e+00 0.000000000000e+00-8.381903171539e-09 1.700000000000e+01
    4.752000000000e+05 4.000000000000e+00
24 20 11 20 14  0  0.0 6.183981895447e-06-4.547473508865e-13 0.000000000000e+00
    4.900000000000e+01 1.521875000000e+01 5.300935090938e-09-1.129361873084e+00
    7.878988981247e-07 1.054392906372e-02 6.608664989471e-06 5.153620569229e+03
    4.824000000000e+05 2.644956111908e-07 3.009572284469e+00 8.568167686462e-08
    9.360052256318e-01 2.381562500000e+02 6.992933229338e-01-8.338561620276e-09
   -2.407243128482e-10 1.000000000000e+00 2.132000000000e+03 0.000000000000e+00
    3.400000000000e+00 0.000000000000e+00 2.793967723846e-09 4.900000000000e+01
    4.752000000000e+05 4.000000000000e+00
12 20 11 20 14  0  0.0 3.778189420700e-05-5.115907697473e-12 0.000000000000e+00
    7.100000000000e+01 5.700000000000e+01 3.912662978118e-09-2.795053827725e+00
    3.026798367500e-06 7.996160420589e-03 8.935108780861e-06 5.153602441788e+03
    4.824000000000e+05-1.490116119385e-08-2.090303270299e+00-2.607703208923e-08
    9.760318185229e-01 2.141875000000e+02 1.164586672909e+00-7.562815021602e-09
   -2.132231673151e-10 1.000000000000e+00 2.132000000000e+03 0.000000000000e+00
    2.400000000000e+00 0.000000000000e+00-1.257285475731e-08 7.100000000000e+01
    4.752000000000e+05 4.000000000000e+00
13 20 11 20 14  0  0.0 6.681727245450e-05 3.865352482535e-12 0.000000000000e+00
    9.500000000000e+01-4.375000000000e+00 4.605906140193e-09 6.467192026792e-02
   -9.685754776001e-08 4.810762591660e-03 8.007511496544e-06 5.153682233810e+03
    4.824000000000e+05 1.117587089539e-08 2.157184967824e+00 9.313225746155e-09
    9.676860522826e-01 2.262812500000e+02 1.050778716626e+00-7.982832517017e-09
    1.500062483624e-10 1.000000000000e+00 2.132000000000e+03 0.000000000000e+00
    2.400000000000e+00 0.000000000000e+00-1.164153218269e-08 9.500000000000e+01
    4.752000000000e+05 4.000000000000e+00
28 20 11 20 14  0  0.0 6.531779654324e-04-4.661160346586e-12 0.000000000000e+00
    6.200000000000e+01 6.134375000000e+01 4.003381042604e-09 1.475041260909e+00
    2.929940819740e-06 1.837772515137e-02 9.031966328621e-06 5.153667846680e+03
    4.824000000000e+05 2.104789018631e-07-2.067851982107e+00-4.693865776062e-07
    9.752323264780e-01 2.090625000000e+02-1.374216588471e+00-7.716035689572e-09
   -2.207234797332e-10 1.000000000000e+00 2.132000000000e+03 0.000000000000e+00
    2.400000000000e+00 0.000000000000e+00-1.117587089539e-08 6.200000000000e+01
    4.752000000000e+05 4.000000000000e+00
17 20 11 20 14  0  0.0 3.564436919987e-04 5.115907697473e-12 0.000000000000e+00
    8.200000000000e+01 6.890625000000e+01 4.050883021252e-09 5.949210697648e-01
    3.496184945107e-06 1.359238021541e-02 5.288049578667e-06 5.153502595901e+03
    4.824000000000e+05-1.564621925354e-07-1.054730688875e+00-9.499490261078e-08
    9.831304134536e-01 2.884062500000e+02-1.612648189407e+00-8.242129032043e-09
    1.046472161195e-10 1.000000000000e+00 2.132000000000e+03 0.000000000000e+00
    2.400000000000e+00 0.000000000000e+00-1.117587089539e-08 8.200000000000e+01
    4.752000000000e+05 4.000000000000e+00
11 20 11 20 14  0  0.0-1.034359447658e-04 1.057287590811e-11 0.000000000000e+00
    2.900000000000e+01 6.937500000000e+00 5.587018436029e-09-2.013130031861e+00
    7.301568984985e-07 1.560156152118e-02 2.220273017883e-06 5.153729564667e+03
    4.824000000000e+05-6.332993507385e-08-5.439725411541e-01 2.924352884293e-07
    9.139461750353e-01 3.134062500000e+02 2.067897120444e+00-8.732506601094e-09
    1.175048945505e-10 1.000000000000e+00 2.132000000000e+03 0.000000000000e+00
    2.400000000000e+00 6.300000000000e+01-1.257285475731e-08 2.900000000000e+01
    4.752000000000e+05 4.000000000000e+00
23 20 11 20 14  0  0.0 1.024329103529e-04 4.206412995700e-12 0.000000000000e+00
    1.620000000000e+02-7.306250000000e+01 4.414826752398e-09-1.486530353876e+00
   -3.779307007790e-06 1.103602466173e-03 8.506700396538e-06 5.153635131836e+03
    4.824000000000e+05-3.539025783539e-08 9.553126589839e-01-5.587935447693e-09
    9.621151944054e-01 2.180625000000e+02 2.143630079460e+00-7.934616222900e-09
    1.489347751598e-10 1.000000000000e+00 2.132000000000e+03 0.000000000000e+00
    2.400000000000e+00 0.000000000000e+00-8.381903171539e-09 6.740000000000e+02
    4.752000000000e+05 4.000000000000e+00
18 20 11 20 14  0  0.0 3.236685879529e-04 4.661160346586e-12 0.000000000000e+00
    1.410000000000e+02-5.693750000000e+01 4.441256424728e-09-1.209598274726e+00
   -3.129243850708e-06 1.176936551929e-03 3.935769200325e-06 5.153707950592e+03
    4.824000000000e+05 4.656612873077e-08-4.349202345735e-02 0.000000000000e+00
    9.662335487171e-01 3.055625000000e+02 2.928509710081e+00-8.198198630737e-09
    7.643175511796e-11 1.000000000000e+00 2.132000000000e+03 0.000000000000e+00
    2.400000000000e+00 0.000000000000e+00-8.381903171539e-09 3.970000000000e+02
    4.752000000000e+05 4.000000000000e+00
